BEIDOU-2 IGSO-1 (C06)   
1 36828U 10036A   26058.95242221 -.00000168  00000+0  00000+0 0  9999
2 36828  54.2921 163.9510 0053918 219.0333 223.0618  1.00253005 57004
BEIDOU-2 G4 (C04)       
1 37210U 10057A   26059.48049502 -.00000129  00000+0  00000+0 0  9991
2 37210   3.3759  69.5642 0009335 209.4516 212.2465  1.00271893 56207
BEIDOU-2 IGSO-2 (C07)   
1 37256U 10068A   26058.35181565 -.00000158  00000+0  00000+0 0  9996
2 37256  47.7414 273.1895 0047378 212.9968 264.9944  1.00260216 55694
BEIDOU-2 IGSO-3 (C08)   
1 37384U 11013A   26058.90884667 -.00000154  00000+0  00000+0 0  9999
2 37384  62.2642  41.1818 0035030 190.8154 358.7681  1.00294022 54569
BEIDOU-2 IGSO-4 (C09)   
1 37763U 11038A   26058.75475780 -.00000136  00000+0  00000+0 0  9992
2 37763  54.5891 166.6619 0154450 230.9848 126.2037  1.00266264 53543
BEIDOU-2 IGSO-5 (C10)   
1 37948U 11073A   26059.56055359 -.00000122  00000+0  00000+0 0  9997
2 37948  47.8750 272.8867 0108582 221.0575 321.4053  1.00273055 52042
BEIDOU-2 G5 (C05)       
1 38091U 12008A   26059.54796874  .00000040  00000+0  00000+0 0  9996
2 38091   3.3018  70.3287 0014186 249.0499  94.9745  1.00274837 51277
BEIDOU-2 M3 (C11)       
1 38250U 12018A   26058.64934387 -.00000047  00000+0  00000+0 0  9995
2 38250  55.8510 308.5694 0021667 279.4287  80.3821  1.86229864 93909
BEIDOU-2 M4 (C12)       
1 38251U 12018B   26058.58148709 -.00000045  00000+0  00000+0 0  9992
2 38251  55.7521 307.7944 0013045 286.0559  73.8564  1.86229541 93900
BEIDOU-2 M6 (C14)       
1 38775U 12050B   26058.82871498  .00000003  00000+0  00000+0 0  9997
2 38775  56.4488  66.5090 0013848 341.4819  18.5089  1.86230827 91274
BEIDOU-2 G6 (C02)       
1 38953U 12059A   26059.53674196 -.00000192  00000+0  00000+0 0  9999
2 38953   4.1453  74.6859 0010276 301.3451  59.5405  1.00269599 48820
BEIDOU-3S IGSO-1S (C31) 
1 40549U 15019A   26058.61231356 -.00000158  00000+0  00000+0 0  9999
2 40549  49.3994 296.7822 0035827 190.4558 347.1279  1.00274743 39974
BEIDOU-3S M2S (C58)     
1 40748U 15037A   26055.02696194 -.00000043  00000+0  00000+0 0  9990
2 40748  54.9706 305.9445 0009260 278.1593  81.7896  1.86231985 72010
BEIDOU-3S M1S (C57)     
1 40749U 15037B   26058.46946468 -.00000042  00000+0  00000+0 0  9993
2 40749  54.9643 305.8137 0004098  10.5407 349.5242  1.86253646 72089
BEIDOU-2 IGSO-6 (C13)   
1 41434U 16021A   26059.39668799 -.00000138  00000+0  00000+0 0  9996
2 41434  60.0807  39.1180 0059805 233.4209 124.1634  1.00278738 36388
BEIDOU-2 G7 (C03)       
1 41586U 16037A   26059.54202865 -.00000370  00000+0  00000+0 0  9994
2 41586   1.4511  68.1346 0007273 341.1364  54.7512  1.00269076  5805
BEIDOU-3 M1 (C19)       
1 43001U 17069A   26059.13111818  .00000003  00000+0  00000+0 0  9998
2 43001  56.5967  66.6754 0012257 309.1799  50.7523  1.86230895 56574
BEIDOU-3 M2 (C20)       
1 43002U 17069B   26059.06960498  .00000003  00000+0  00000+0 0  9997
2 43002  56.5955  66.7136 0009493 328.0865  31.8974  1.86230595 56565
BEIDOU-3 M7 (C27)       
1 43107U 18003A   26058.81165505 -.00000044  00000+0  00000+0 0  9996
2 43107  54.4250 306.1308 0004495  70.0881 290.0165  1.86232317 55314
BEIDOU-3 M8 (C28)       
1 43108U 18003B   26057.14630995 -.00000044  00000+0  00000+0 0  9992
2 43108  54.4193 306.1719 0003368 291.7404  68.2770  1.86230879 55293
BEIDOU-3 M4 (C22)       
1 43207U 18018A   26059.19938138  .00000003  00000+0  00000+0 0  9999
2 43207  56.5562  66.7407 0006829 349.8982  10.1294  1.86230558 54717
BEIDOU-3 M3 (C21)       
1 43208U 18018B   26059.26583112  .00000003  00000+0  00000+0 0  9996
2 43208  56.5556  66.7427 0009897 319.3104  40.6568  1.86230831 54715
BEIDOU-3 M9 (C29)       
1 43245U 18029A   26058.94596860 -.00000039  00000+0  00000+0 0  9997
2 43245  54.2921 303.7701 0000903  19.6461 340.4153  1.86227964 53860
BEIDOU-3 M10 (C30)      
1 43246U 18029B   26058.34389976 -.00000038  00000+0  00000+0 0  9999
2 43246  54.2903 303.8194 0005032  20.8094 339.2678  1.86228951 53834
BEIDOU-2 IGSO-7 (C16)   
1 43539U 18057A   26056.73984515 -.00000161  00000+0  00000+0 0  9993
2 43539  55.1859 164.0342 0099963 236.5988 133.5173  1.00284731 28016
BEIDOU-3 M5 (C23)       
1 43581U 18062A   26057.49413235 -.00000004  00000+0  00000+0 0  9992
2 43581  54.0889 186.0670 0001871 315.2511  44.6939  1.86228511 51577
BEIDOU-3 M6 (C24)       
1 43582U 18062B   26059.50483865 -.00000029  00000+0  00000+0 0  9990
2 43582  54.0879 185.9878 0006295  43.8159 316.1858  1.86227508 51619
BEIDOU-3 M12 (C26)      
1 43602U 18067A   26059.44326171 -.00000030  00000+0  00000+0 0  9999
2 43602  54.1832 184.7274 0008631  40.1464 319.8705  1.86227651 51096
BEIDOU-3 M11 (C25)      
1 43603U 18067B   26056.89320975  .00000005  00000+0  00000+0 0  9993
2 43603  54.1809 184.7778 0005044  35.0448 324.9525  1.86227098 51070
BEIDOU-3 M13 (C32)      
1 43622U 18072A   26059.53394668  .00000001  00000+0  00000+0 0  9990
2 43622  56.5288  66.2439 0008806 306.7128  53.2462  1.86230864 50636
BEIDOU-3 M14 (C33)      
1 43623U 18072B   26059.39940534  .00000002  00000+0  00000+0 0  9995
2 43623  56.5307  66.2424 0006300 328.0536  31.9483  1.86230885 50628
BEIDOU-3 M16 (C35)      
1 43647U 18078A   26059.01935707 -.00000039  00000+0  00000+0 0  9993
2 43647  54.1882 303.8146 0008412  30.3846 329.7221  1.86232235 50124
BEIDOU-3 M15 (C34)      
1 43648U 18078B   26059.14864593 -.00000039  00000+0  00000+0 0  9992
2 43648  54.1845 303.8115 0005164  35.1834 324.9089  1.86232075 50144
BEIDOU-3 G1 (C59)       
1 43683U 18085A   26059.54783534 -.00000296  00000+0  00000+0 0  9993
2 43683   2.7998 100.5069 0001236  35.3016 359.8304  1.00269656 26973
BEIDOU-3 M17 (C36)      
1 43706U 18093A   26057.78463919 -.00000009  00000+0  00000+0 0  9996
2 43706  54.1721 186.0414 0006839 298.0047 120.4782  1.86228194 49482
BEIDOU-3 M18 (C37)      
1 43707U 18093B   26057.55952819 -.00000005  00000+0  00000+0 0  9990
2 43707  54.1732 186.0408 0005944 343.2709  16.6691  1.86226358 49476
BEIDOU-3 IGSO-1 (C38)   
1 44204U 19023A   26059.33004102 -.00000196  00000+0  00000+0 0  9999
2 44204  58.5477  38.7677 0025992 236.5181 120.9198  1.00271612  6111
BEIDOU-2 G8 (C01)       
1 44231U 19027A   26059.54870200 -.00000265  00000+0  00000+0 0  9993
2 44231   1.8573  74.7268 0009222 268.0954 157.5816  1.00268688 24999
BEIDOU-3 IGSO-2 (C39)   
1 44337U 19035A   26057.68879618 -.00000176  00000+0  00000+0 0  9995
2 44337  55.2338 159.8353 0038734 206.4752 153.7223  1.00247364 24561
BEIDOU-3 M24 (C46)      
1 44542U 19061A   26057.09263238  .00000004  00000+0  00000+0 0  9991
2 44542  54.4002 186.4738 0008697  22.7104 337.2899  1.86228845 43720
BEIDOU-3 M23 (C45)      
1 44543U 19061B   26058.98318913 -.00000024  00000+0  00000+0 0  9995
2 44543  54.3980 186.3787 0005110  14.2500  85.5431  1.86227209 43763
BEIDOU-3 IGSO-3 (C40)   
1 44709U 19073A   26058.01596846 -.00000147  00000+0  00000+0 0  9995
2 44709  54.9870 282.0888 0040358 189.1368 170.8641  1.00271018 23351
BEIDOU-3 M22 (C44)      
1 44793U 19078A   26059.07985671 -.00000039  00000+0  00000+0 0  9998
2 44793  54.0347 303.6688 0007221  34.9561 325.1493  1.86231871 42613
BEIDOU-3 M21 (C43)      
1 44794U 19078B   26059.21932407 -.00000040  00000+0  00000+0 0  9996
2 44794  54.0076 303.6269 0005661  36.1333 323.9632  1.86227562 42629
BEIDOU-3 M19 (C41)      
1 44864U 19090A   26058.61805374  .00000002  00000+0  00000+0 0  9990
2 44864  56.4628  66.4111 0020362 291.0703 222.3518  1.86231116 42191
BEIDOU-3 M20 (C42)      
1 44865U 19090B   26057.98080659  .00000002  00000+0  00000+0 0  9991
2 44865  56.4638  66.4664 0017744 302.5935 233.1976  1.86231075 42160
BEIDOU-3 G2 (C60)       
1 45344U 20017A   26059.55460640 -.00000156  00000+0  00000+0 0  9993
2 45344   2.6460  45.4925 0002674 297.5019  95.0527  1.00271165 22174
BEIDOU-3 G3 (C61)       
1 45807U 20040A   26059.54194198 -.00000370  00000+0  00000+0 0  9992
2 45807   2.1795  67.0975 0004910 316.4907  80.2587  1.00264594 20988
BEIDOU-3 G4 (C62)       
1 56564U 23066A   26059.58085770 -.00000129  00000+0  00000+0 0  9996
2 56564   0.6561 310.3739 0001775 165.7983  51.3518  1.00271900 10308
BEIDOU-3 M28 (C50)      
1 58654U 23207A   26058.75989343 -.00000001  00000+0  00000+0 0  9991
2 58654  55.6557  65.9933 0004859 301.2837  58.7092  1.86229629 14807
BEIDOU-3 M26 (C48)      
1 58655U 23207B   26055.87257622 -.00000007  00000+0  00000+0 0  9996
2 58655  55.6550  66.0772 0005679 285.6548  74.3209  1.86229499 14730
BEIDOU-3 M25 (C47)      
1 61186U 24168B   26059.49538653 -.00000045  00000+0  00000+0 0  9996
2 61186  54.5692 306.0206 0004333 317.3566  68.4966  1.86229885  9766
BEIDOU-3 M27 (C49)      
1 61187U 24168C   26058.86565681 -.00000044  00000+0  00000+0 0  9997
2 61187  54.5652 306.0258 0002895  18.1383  80.5013  1.86230003  7225
